CYGNUS NG-23            
1 65616U 25208A   25351.57133537  .00007597  00000+0  14274-3 0  9999
2 65616  51.6310 118.5527 0003182 262.6214  97.4413 15.49636687   225
DRAGONFLY               
1 65729U 98067XH  25351.56750399  .00160588  00000+0  11078-2 0  9995
2 65729  51.6243 111.0116 0007206 308.5140  51.5212 15.73531298 13924
1998-067XK              
1 65731U 98067XK  25351.58338789  .00085225  00000+0  79229-3 0  9992
2 65731  51.6289 112.6400 0004759 277.2608  82.7846 15.66666293 13904
RSP-03                  
1 65732U 98067XL  25351.57888421  .00115432  00000+0  93703-3 0  9992
2 65732  51.6262 111.8477 0005617 283.4279  76.6092 15.69845633 13925
GHS-01                  
1 65733U 98067XM  25351.63632508  .00211757  00000+0  12494-2 0  9997
2 65733  51.6275 109.9788 0007867 312.8661  47.1678 15.76951537 13959
YOTSUBA-KULOVER         
1 65941U 98067XN  25351.64588358  .00058878  00000+0  71229-3 0  9997
2 65941  51.6281 115.3056 0001549 303.2507  56.8338 15.60110831 10628
BOTAN                   
1 65942U 98067XP  25351.64011105  .00095351  00000+0  98816-3 0  9997
2 65942  51.6282 114.5172 0002856 279.3266  80.7406 15.63897894 10634
E-KAGAKU-1              
1 65943U 98067XQ  25351.64598228  .00060567  00000+0  73265-3 0  9996
2 65943  51.6301 115.3109 0001352 235.3958 124.6907 15.60101880 10629
HRC MONOBLOCK CAMERA    
1 66052U 98067XR  25351.53753866  .00030839  00000+0  46533-3 0  9994
2 66052  51.6293 117.5777 0002726 205.5300 154.5557 15.54476450  9589
HTV-X1                  
1 66174U 25241A   25351.57133537  .00007597  00000+0  14274-3 0  9996
2 66174  51.6310 118.5527 0003182 262.6214  97.4413 15.49636687   517
SZ-21 MODULE            
1 66515U 25246C   25351.26873890  .00022864  00000+0  25031-3 0  9996
2 66515  41.4771 348.4140 0005990 284.3104  75.7070 15.62718015  5151
SHENZHOU-22             
1 66645U 25272A   25351.45427678  .00020985  00000+0  26148-3 0  9991
2 66645  41.4681 348.0821 0007736  71.5092 288.6587 15.59380496263573
