CCSDS_OMM_VERS = 2.0
CREATION_DATE  = 
ORIGINATOR     = 

OBJECT_NAME    = CYGNUS NG-23
OBJECT_ID      = 2025-208A
CENTER_NAME    = EARTH
REF_FRAME      = TEME
TIME_SYSTEM    = UTC
MEAN_ELEMENT_THEORY = SGP/SGP4

EPOCH          = 2025-12-17T13:42:43.375968
MEAN_MOTION    = 15.49636687
ECCENTRICITY   = .00031828
INCLINATION    = 51.6310
RA_OF_ASC_NODE = 118.5527
ARG_OF_PERICENTER = 262.6214
MEAN_ANOMALY   = 97.4413

EPHEMERIS_TYPE = 0
CLASSIFICATION_TYPE = U
NORAD_CAT_ID   = 65616
ELEMENT_SET_NO = 999
REV_AT_EPOCH   = 22
BSTAR          = .14273627E-3
MEAN_MOTION_DOT = .7597E-4
MEAN_MOTION_DDOT = 0

CCSDS_OMM_VERS = 2.0
CREATION_DATE  = 
ORIGINATOR     = 

OBJECT_NAME    = DRAGONFLY
OBJECT_ID      = 1998-067XH
CENTER_NAME    = EARTH
REF_FRAME      = TEME
TIME_SYSTEM    = UTC
MEAN_ELEMENT_THEORY = SGP/SGP4

EPOCH          = 2025-12-17T13:37:12.344736
MEAN_MOTION    = 15.73531298
ECCENTRICITY   = .00072061
INCLINATION    = 51.6243
RA_OF_ASC_NODE = 111.0116
ARG_OF_PERICENTER = 308.5140
MEAN_ANOMALY   = 51.5212

EPHEMERIS_TYPE = 0
CLASSIFICATION_TYPE = U
NORAD_CAT_ID   = 65729
ELEMENT_SET_NO = 999
REV_AT_EPOCH   = 1392
BSTAR          = .11077639E-2
MEAN_MOTION_DOT = .160588E-2
MEAN_MOTION_DDOT = 0

CCSDS_OMM_VERS = 2.0
CREATION_DATE  = 
ORIGINATOR     = 

OBJECT_NAME    = 1998-067XK
OBJECT_ID      = 1998-067XK
CENTER_NAME    = EARTH
REF_FRAME      = TEME
TIME_SYSTEM    = UTC
MEAN_ELEMENT_THEORY = SGP/SGP4

EPOCH          = 2025-12-17T14:00:04.713696
MEAN_MOTION    = 15.66666293
ECCENTRICITY   = .00047593
INCLINATION    = 51.6289
RA_OF_ASC_NODE = 112.6400
ARG_OF_PERICENTER = 277.2608
MEAN_ANOMALY   = 82.7846

EPHEMERIS_TYPE = 0
CLASSIFICATION_TYPE = U
NORAD_CAT_ID   = 65731
ELEMENT_SET_NO = 999
REV_AT_EPOCH   = 1390
BSTAR          = .79228691E-3
MEAN_MOTION_DOT = .85225E-3
MEAN_MOTION_DDOT = 0

CCSDS_OMM_VERS = 2.0
CREATION_DATE  = 
ORIGINATOR     = 

OBJECT_NAME    = RSP-03
OBJECT_ID      = 1998-067XL
CENTER_NAME    = EARTH
REF_FRAME      = TEME
TIME_SYSTEM    = UTC
MEAN_ELEMENT_THEORY = SGP/SGP4

EPOCH          = 2025-12-17T13:53:35.595744
MEAN_MOTION    = 15.69845633
ECCENTRICITY   = .0005617
INCLINATION    = 51.6262
RA_OF_ASC_NODE = 111.8477
ARG_OF_PERICENTER = 283.4279
MEAN_ANOMALY   = 76.6092

EPHEMERIS_TYPE = 0
CLASSIFICATION_TYPE = U
NORAD_CAT_ID   = 65732
ELEMENT_SET_NO = 999
REV_AT_EPOCH   = 1392
BSTAR          = .93703449E-3
MEAN_MOTION_DOT = .115432E-2
MEAN_MOTION_DDOT = 0

CCSDS_OMM_VERS = 2.0
CREATION_DATE  = 
ORIGINATOR     = 

OBJECT_NAME    = GHS-01
OBJECT_ID      = 1998-067XM
CENTER_NAME    = EARTH
REF_FRAME      = TEME
TIME_SYSTEM    = UTC
MEAN_ELEMENT_THEORY = SGP/SGP4

EPOCH          = 2025-12-17T15:16:18.486912
MEAN_MOTION    = 15.76951537
ECCENTRICITY   = .00078677
INCLINATION    = 51.6275
RA_OF_ASC_NODE = 109.9788
ARG_OF_PERICENTER = 312.8661
MEAN_ANOMALY   = 47.1678

EPHEMERIS_TYPE = 0
CLASSIFICATION_TYPE = U
NORAD_CAT_ID   = 65733
ELEMENT_SET_NO = 999
REV_AT_EPOCH   = 1395
BSTAR          = .1249396E-2
MEAN_MOTION_DOT = .211757E-2
MEAN_MOTION_DDOT = 0

CCSDS_OMM_VERS = 2.0
CREATION_DATE  = 
ORIGINATOR     = 

OBJECT_NAME    = YOTSUBA-KULOVER
OBJECT_ID      = 1998-067XN
CENTER_NAME    = EARTH
REF_FRAME      = TEME
TIME_SYSTEM    = UTC
MEAN_ELEMENT_THEORY = SGP/SGP4

EPOCH          = 2025-12-17T15:30:04.341312
MEAN_MOTION    = 15.60110831
ECCENTRICITY   = .00015491
INCLINATION    = 51.6281
RA_OF_ASC_NODE = 115.3056
ARG_OF_PERICENTER = 303.2507
MEAN_ANOMALY   = 56.8338

EPHEMERIS_TYPE = 0
CLASSIFICATION_TYPE = U
NORAD_CAT_ID   = 65941
ELEMENT_SET_NO = 999
REV_AT_EPOCH   = 1062
BSTAR          = .71229285E-3
MEAN_MOTION_DOT = .58878E-3
MEAN_MOTION_DDOT = 0

CCSDS_OMM_VERS = 2.0
CREATION_DATE  = 
ORIGINATOR     = 

OBJECT_NAME    = BOTAN
OBJECT_ID      = 1998-067XP
CENTER_NAME    = EARTH
REF_FRAME      = TEME
TIME_SYSTEM    = UTC
MEAN_ELEMENT_THEORY = SGP/SGP4

EPOCH          = 2025-12-17T15:21:45.594720
MEAN_MOTION    = 15.63897894
ECCENTRICITY   = .00028568
INCLINATION    = 51.6282
RA_OF_ASC_NODE = 114.5172
ARG_OF_PERICENTER = 279.3266
MEAN_ANOMALY   = 80.7406

EPHEMERIS_TYPE = 0
CLASSIFICATION_TYPE = U
NORAD_CAT_ID   = 65942
ELEMENT_SET_NO = 999
REV_AT_EPOCH   = 1063
BSTAR          = .98815629E-3
MEAN_MOTION_DOT = .95351E-3
MEAN_MOTION_DDOT = 0

CCSDS_OMM_VERS = 2.0
CREATION_DATE  = 
ORIGINATOR     = 

OBJECT_NAME    = E-KAGAKU-1
OBJECT_ID      = 1998-067XQ
CENTER_NAME    = EARTH
REF_FRAME      = TEME
TIME_SYSTEM    = UTC
MEAN_ELEMENT_THEORY = SGP/SGP4

EPOCH          = 2025-12-17T15:30:12.868992
MEAN_MOTION    = 15.60101880
ECCENTRICITY   = .00013526
INCLINATION    = 51.6301
RA_OF_ASC_NODE = 115.3109
ARG_OF_PERICENTER = 235.3958
MEAN_ANOMALY   = 124.6907

EPHEMERIS_TYPE = 0
CLASSIFICATION_TYPE = U
NORAD_CAT_ID   = 65943
ELEMENT_SET_NO = 999
REV_AT_EPOCH   = 1062
BSTAR          = .73264982E-3
MEAN_MOTION_DOT = .60567E-3
MEAN_MOTION_DDOT = 0

CCSDS_OMM_VERS = 2.0
CREATION_DATE  = 
ORIGINATOR     = 

OBJECT_NAME    = HRC MONOBLOCK CAMERA
OBJECT_ID      = 1998-067XR
CENTER_NAME    = EARTH
REF_FRAME      = TEME
TIME_SYSTEM    = UTC
MEAN_ELEMENT_THEORY = SGP/SGP4

EPOCH          = 2025-12-17T12:54:03.340224
MEAN_MOTION    = 15.54476450
ECCENTRICITY   = .00027269
INCLINATION    = 51.6293
RA_OF_ASC_NODE = 117.5777
ARG_OF_PERICENTER = 205.5300
MEAN_ANOMALY   = 154.5557

EPHEMERIS_TYPE = 0
CLASSIFICATION_TYPE = U
NORAD_CAT_ID   = 66052
ELEMENT_SET_NO = 999
REV_AT_EPOCH   = 958
BSTAR          = .46532549E-3
MEAN_MOTION_DOT = .30839E-3
MEAN_MOTION_DDOT = 0

CCSDS_OMM_VERS = 2.0
CREATION_DATE  = 
ORIGINATOR     = 

OBJECT_NAME    = HTV-X1
OBJECT_ID      = 2025-241A
CENTER_NAME    = EARTH
REF_FRAME      = TEME
TIME_SYSTEM    = UTC
MEAN_ELEMENT_THEORY = SGP/SGP4

EPOCH          = 2025-12-17T13:42:43.375968
MEAN_MOTION    = 15.49636687
ECCENTRICITY   = .00031828
INCLINATION    = 51.6310
RA_OF_ASC_NODE = 118.5527
ARG_OF_PERICENTER = 262.6214
MEAN_ANOMALY   = 97.4413

EPHEMERIS_TYPE = 0
CLASSIFICATION_TYPE = U
NORAD_CAT_ID   = 66174
ELEMENT_SET_NO = 999
REV_AT_EPOCH   = 51
BSTAR          = .14273627E-3
MEAN_MOTION_DOT = .7597E-4
MEAN_MOTION_DDOT = 0

CCSDS_OMM_VERS = 2.0
CREATION_DATE  = 
ORIGINATOR     = 

OBJECT_NAME    = SZ-21 MODULE
OBJECT_ID      = 2025-246C
CENTER_NAME    = EARTH
REF_FRAME      = TEME
TIME_SYSTEM    = UTC
MEAN_ELEMENT_THEORY = SGP/SGP4

EPOCH          = 2025-12-17T06:26:59.040960
MEAN_MOTION    = 15.62718015
ECCENTRICITY   = .00059901
INCLINATION    = 41.4771
RA_OF_ASC_NODE = 348.4140
ARG_OF_PERICENTER = 284.3104
MEAN_ANOMALY   = 75.7070

EPHEMERIS_TYPE = 0
CLASSIFICATION_TYPE = U
NORAD_CAT_ID   = 66515
ELEMENT_SET_NO = 999
REV_AT_EPOCH   = 515
BSTAR          = .25031156E-3
MEAN_MOTION_DOT = .22864E-3
MEAN_MOTION_DDOT = 0

CCSDS_OMM_VERS = 2.0
CREATION_DATE  = 
ORIGINATOR     = 

OBJECT_NAME    = SHENZHOU-22
OBJECT_ID      = 2025-272A
CENTER_NAME    = EARTH
REF_FRAME      = TEME
TIME_SYSTEM    = UTC
MEAN_ELEMENT_THEORY = SGP/SGP4

EPOCH          = 2025-12-17T10:54:09.513792
MEAN_MOTION    = 15.59380496
ECCENTRICITY   = .00077365
INCLINATION    = 41.4681
RA_OF_ASC_NODE = 348.0821
ARG_OF_PERICENTER = 71.5092
MEAN_ANOMALY   = 288.6587

EPHEMERIS_TYPE = 0
CLASSIFICATION_TYPE = U
NORAD_CAT_ID   = 66645
ELEMENT_SET_NO = 999
REV_AT_EPOCH   = 26357
BSTAR          = .26147589E-3
MEAN_MOTION_DOT = .20985E-3
MEAN_MOTION_DDOT = 0

